[{"name":"ELEKTRO-L 3","l1":"1 44903U 19095A   26183.78827243 -.00000086  00000+0  00000+0 0  9998","l2":"2 44903   0.2957  81.9505 0001671   7.6891 190.9485  1.00272509 23860","cat":"geostationary"},{"name":"SALSAT","l1":"1 46495U 20068K   26183.25417132  .00008637  00000+0  29987-3 0  9990","l2":"2 46495  97.8847 187.2381 0008038 243.7769 116.2645 15.30013367317667","cat":"science"},{"name":"GONETS-M 14","l1":"1 44905U 19096A   26183.74534907  .00000220  00000+0  15145-2 0  9997","l2":"2 44905  82.5233  74.9958 0014147 115.5740 244.6803 12.42871000295614","cat":"communications"},{"name":"GONETS-M 15","l1":"1 44906U 19096B   26183.69423883  .00000144  00000+0  96735-3 0  9992","l2":"2 44906  82.5253  75.4915 0015619 137.9764 222.2517 12.42872215295573","cat":"communications"},{"name":"GONETS-M 16","l1":"1 44907U 19096C   26183.72019501  .00000144  00000+0  96626-3 0  9994","l2":"2 44907  82.5199  74.4204 0010435 178.5085 181.6028 12.42892383295563","cat":"communications"},{"name":"RS-44 & BREEZE-KM R/B","l1":"1 44909U 19096E   26183.64139568  .00000006  00000+0 -28969-4 0  9997","l2":"2 44909  82.5226 329.4351 0218530 108.1962 254.3062 12.79748909304326","cat":"debris"},{"name":"JILIN-1 KUANFU 01","l1":"1 45016U 20003A   26183.71795906  .00003246  00000+0  19908-3 0  9999","l2":"2 45016  97.5024 257.3705 0008259 244.0785 115.9594 15.10809987357678","cat":"science"},{"name":"XINGYUN-2 01","l1":"1 45602U 20028A   26183.76207888  .00002557  00000+0  15305-3 0  9990","l2":"2 45602  97.4871 175.8546 0010214 140.3987 219.7991 15.11872386337194","cat":"other"},{"name":"XINGYUN-2 02","l1":"1 45603U 20028B   26183.74347404  .00001811  00000+0  11038-3 0  9999","l2":"2 45603  97.5069 189.4617 0009821 209.9341 150.1329 15.11597943337188","cat":"other"},{"name":"HAIYANG-1D","l1":"1 45721U 20036A   26183.81012211  .00000039  00000+0  29302-4 0  9997","l2":"2 45721  98.4563 125.1507 0003984  95.0749 265.0891 14.34177970317213","cat":"other"},{"name":"M2 PATHFINDER","l1":"1 45727U 20037E   26183.47482691  .00003477  00000+0  25081-3 0  9997","l2":"2 45727  97.8146  14.8778 0012859 100.9984 259.2689 15.04746846327797","cat":"other"},{"name":"GAOFEN DUOMO (GFDM)","l1":"1 45856U 20042A   26183.79017821  .00000805  00000+0  12133-3 0  9996","l2":"2 45856  97.7739 243.1085 0011690  29.5018 330.6850 14.76900839323311","cat":"other"},{"name":"ZIYUAN 3-03 (ZY 3-03)","l1":"1 45939U 20051A   26183.77281590  .00005321  00000+0  24027-3 0  9995","l2":"2 45939  97.2827 250.9934 0002077 255.3133 104.7873 15.21380854329716","cat":"other"},{"name":"NEMO-HD","l1":"1 46277U 20061F   26183.74131098  .00011417  00000+0  24467-3 0  9997","l2":"2 46277  97.1909 245.5395 0001470  73.2833 286.8577 15.44912307324383","cat":"other"},{"name":"NAPA-1","l1":"1 46320U 20061BA  26183.78804874  .00079703  00000+0  65493-3 0  9995","l2":"2 46320  97.2446 258.5022 0001846 182.9909 177.1343 15.70191107324186","cat":"other"},{"name":"JILIN-1 GAOFEN 3E","l1":"1 46457U 20065D   26183.76379100  .00070741  00000+0  69736-3 0  9994","l2":"2 46457  97.2223 236.7522 0011979 110.2700 249.9849 15.65639918322193","cat":"science"},{"name":"JILIN-1 GAOFEN 3F","l1":"1 46458U 20065E   26183.75323178  .00061620  00000+0  68448-3 0  9993","l2":"2 46458  97.2178 233.9996 0013448  98.1486 262.1299 15.62610197322130","cat":"science"},{"name":"JILIN-1 GAOFEN 3G","l1":"1 46459U 20065F   26183.73703108  .00112993  00000+0  77703-3 0  9991","l2":"2 46459  97.2237 241.0605 0005014 350.5087   9.6082 15.74305486322382","cat":"science"},{"name":"JILIN-1 GAOFEN 3H","l1":"1 46460U 20065G   26183.74575751  .00091731  00000+0  75163-3 0  9999","l2":"2 46460  97.2185 237.2966 0004400 252.4207 107.6575 15.70211012322322","cat":"science"},{"name":"HAIYANG-2C","l1":"1 46469U 20066A   26183.78142976 -.00000002  00000+0  72175-4 0  9995","l2":"2 46469  65.9948 176.4574 0008264 237.6824 122.3445 13.83377266291658","cat":"other"},{"name":"HJ-2A","l1":"1 46478U 20067A   26183.75178222  .00000574  00000+0  89450-4 0  9993","l2":"2 46478  97.8830 261.7561 0003035 195.0812 165.0308 14.76535280310559","cat":"other"},{"name":"HJ-2B","l1":"1 46479U 20067B   26183.72045243  .00001272  00000+0  18941-3 0  9999","l2":"2 46479  97.8894 262.7603 0001630 100.4613 259.6781 14.76579552310551","cat":"other"},{"name":"GONETS-M 17","l1":"1 46486U 20068A   26183.74549581 -.00000042  00000+0 -37758-3 0  9997","l2":"2 46486  82.4998 337.8218 0022383   4.2296 355.8969 12.42873386261090","cat":"communications"},{"name":"GONETS-M 18","l1":"1 46487U 20068B   26183.70914751 -.00000072  00000+0 -59012-3 0  9999","l2":"2 46487  82.4952 336.9563 0019626   0.9819 359.1296 12.42873979261070","cat":"communications"},{"name":"GONETS-M 19","l1":"1 46488U 20068C   26183.76484378 -.00000012  00000+0 -15783-3 0  9994","l2":"2 46488  82.4977 337.3749 0013630  17.3394 342.8148 12.42892361261181","cat":"communications"},{"name":"DEKART","l1":"1 46493U 20068H   26183.76134416  .00012899  00000+0  35034-3 0  9990","l2":"2 46493  97.8736 194.1500 0007852 218.1780 141.8908 15.37702199318161","cat":"other"},{"name":"NORBI","l1":"1 46494U 20068J   26183.79249976  .00024833  00000+0  45760-3 0  9990","l2":"2 46494  97.8620 201.1395 0006932 183.4041 176.7162 15.49124681318624","cat":"other"}]