OBJECT_NAME,OBJECT_ID,EPOCH,MEAN_MOTION,ECCENTRICITY,INCLINATION,RA_OF_ASC_NODE,ARG_OF_PERICENTER,MEAN_ANOMALY,EPHEMERIS_TYPE,CLASSIFICATION_TYPE,NORAD_CAT_ID,ELEMENT_SET_NO,REV_AT_EPOCH,BSTAR,MEAN_MOTION_DOT,MEAN_MOTION_DDOT
ELEKTRO-L 3,2019-095A,2026-07-02T18:55:06.737952,1.00272509,.0001671,0.2957,81.9505,7.6891,190.9485,0,U,44903,999,2386,0,-.86E-6,0
GONETS-M 14,2019-096A,2026-07-02T17:53:18.159648,12.42871000,.0014147,82.5233,74.9958,115.5740,244.6803,0,U,44905,999,29561,.15145E-2,.22E-5,0
GONETS-M 15,2019-096B,2026-07-02T16:39:42.234912,12.42872215,.0015619,82.5253,75.4915,137.9764,222.2517,0,U,44906,999,29557,.96735E-3,.144E-5,0
GONETS-M 16,2019-096C,2026-07-02T17:17:04.848864,12.42892383,.0010435,82.5199,74.4204,178.5085,181.6028,0,U,44907,999,29556,.96626E-3,.144E-5,0
RS-44 & BREEZE-KM R/B,2019-096E,2026-07-02T15:23:36.586752,12.79748909,.021853,82.5226,329.4351,108.1962,254.3062,0,U,44909,999,30432,-.28969E-4,.6E-7,0
JILIN-1 KUANFU 01,2020-003A,2026-07-02T17:13:51.662784,15.10809987,.0008259,97.5024,257.3705,244.0785,115.9594,0,U,45016,999,35767,.19908E-3,.3246E-4,0
XINGYUN-2 01,2020-028A,2026-07-02T18:17:23.615232,15.11872386,.0010214,97.4871,175.8546,140.3987,219.7991,0,U,45602,999,33719,.15305E-3,.2557E-4,0
XINGYUN-2 02,2020-028B,2026-07-02T17:50:36.157056,15.11597943,.0009821,97.5069,189.4617,209.9341,150.1329,0,U,45603,999,33718,.11038E-3,.1811E-4,0
HAIYANG-1D,2020-036A,2026-07-02T19:26:34.550304,14.34177970,.0003984,98.4563,125.1507,95.0749,265.0891,0,U,45721,999,31721,.29302E-4,.39E-6,0
M2 PATHFINDER,2020-037E,2026-07-02T11:23:45.045024,15.04746846,.0012859,97.8146,14.8778,100.9984,259.2689,0,U,45727,999,32779,.25081E-3,.3477E-4,0
GAOFEN DUOMO (GFDM),2020-042A,2026-07-02T18:57:51.397344,14.76900839,.001169,97.7739,243.1085,29.5018,330.6850,0,U,45856,999,32331,.12133E-3,.805E-5,0
ZIYUAN 3-03 (ZY 3-03),2020-051A,2026-07-02T18:32:51.293760,15.21380854,.0002077,97.2827,250.9934,255.3133,104.7873,0,U,45939,999,32971,.24027E-3,.5321E-4,0
NEMO-HD,2020-061F,2026-07-02T17:47:29.268672,15.44912307,.000147,97.1909,245.5395,73.2833,286.8577,0,U,46277,999,32438,.24467E-3,.11417E-3,0
NAPA-1,2020-061BA,2026-07-02T18:54:47.411136,15.70191107,.0001846,97.2446,258.5022,182.9909,177.1343,0,U,46320,999,32418,.65493E-3,.79703E-3,0
JILIN-1 GAOFEN 3E,2020-065D,2026-07-02T18:19:51.542400,15.65639918,.0011979,97.2223,236.7522,110.2700,249.9849,0,U,46457,999,32219,.69736E-3,.70741E-3,0
JILIN-1 GAOFEN 3F,2020-065E,2026-07-02T18:04:39.225792,15.62610197,.0013448,97.2178,233.9996,98.1486,262.1299,0,U,46458,999,32213,.68448E-3,.6162E-3,0
JILIN-1 GAOFEN 3G,2020-065F,2026-07-02T17:41:19.485312,15.74305486,.0005014,97.2237,241.0605,350.5087,9.6082,0,U,46459,999,32238,.77703E-3,.112993E-2,0
JILIN-1 GAOFEN 3H,2020-065G,2026-07-02T17:53:53.448864,15.70211012,.00044,97.2185,237.2966,252.4207,107.6575,0,U,46460,999,32232,.75163E-3,.91731E-3,0
HAIYANG-2C,2020-066A,2026-07-02T18:45:15.531264,13.83377266,.0008264,65.9948,176.4574,237.6824,122.3445,0,U,46469,999,29165,.72175E-4,-.2E-7,0
HJ-2A,2020-067A,2026-07-02T18:02:33.983808,14.76535280,.0003035,97.8830,261.7561,195.0812,165.0308,0,U,46478,999,31055,.8945E-4,.574E-5,0
HJ-2B,2020-067B,2026-07-02T17:17:27.089952,14.76579552,.000163,97.8894,262.7603,100.4613,259.6781,0,U,46479,999,31055,.18941E-3,.1272E-4,0
GONETS-M 17,2020-068A,2026-07-02T17:53:30.837984,12.42873386,.0022383,82.4998,337.8218,4.2296,355.8969,0,U,46486,999,26109,-.37758E-3,-.42E-6,0
GONETS-M 18,2020-068B,2026-07-02T17:01:10.344864,12.42873979,.0019626,82.4952,336.9563,0.9819,359.1296,0,U,46487,999,26107,-.59012E-3,-.72E-6,0
GONETS-M 19,2020-068C,2026-07-02T18:21:22.502592,12.42892361,.001363,82.4977,337.3749,17.3394,342.8148,0,U,46488,999,26118,-.15783E-3,-.12E-6,0
DEKART,2020-068H,2026-07-02T18:16:20.135424,15.37702199,.0007852,97.8736,194.1500,218.1780,141.8908,0,U,46493,999,31816,.35034E-3,.12899E-3,0
NORBI,2020-068J,2026-07-02T19:01:11.979264,15.49124681,.0006932,97.8620,201.1395,183.4041,176.7162,0,U,46494,999,31862,.4576E-3,.24833E-3,0
SALSAT,2020-068K,2026-07-02T06:06:00.402048,15.30013367,.0008038,97.8847,187.2381,243.7769,116.2645,0,U,46495,999,31766,.29987E-3,.8637E-4,0
